H1 CPF  1  HTS 2022  8  9 12  7211 larets           NONE
H2  0304206 5557    27944 2022 08 09  0  0  0 2022 08 14  0  0  0   180 1 1  0 0 0
H5  0.0560 
H9 
10 0 59804  20520.00000  0   -3004782.548    4984112.911   -4015150.944
10 0 59804  20700.00000  0   -2306276.433    4403217.077   -5031414.334
10 0 59804  20880.00000  0   -1541980.832    3643933.231   -5864470.050
10 0 59804  21060.00000  0    -743968.620    2732659.652   -6484391.074
10 0 59804  21240.00000  0      55362.366    1701974.640   -6869017.116
10 0 59804  21420.00000  0     824576.688     589455.044   -7004662.625
10 0 59804  21600.00000  0    1534400.544    -563677.489   -6886542.906
10 0 59804  21780.00000  0    2158800.681   -1714046.214   -6518914.348
10 0 59804  21960.00000  0    2675910.887   -2817700.151   -5914932.966
10 0 59804  22140.00000  0    3068787.867   -3831749.309   -5096239.675
10 0 59804  22320.00000  0    3325974.351   -4716015.937   -4092260.158
10 0 59804  22500.00000  0    3441841.891   -5434630.935   -2939224.187
10 0 59804  22680.00000  0    3416703.803   -5957523.633   -1678929.080
10 0 59804  22860.00000  0    3256684.131   -6261733.243    -357261.190
10 0 59804  23040.00000  0    2973338.539   -6332466.338     977475.760
10 0 59804  23220.00000  0    2583037.914   -6163835.749    2276356.854
10 0 59804  23400.00000  0    2106144.637   -5759234.248    3491681.191
10 0 59804  23580.00000  0    1566019.947   -5131313.893    4578773.559
10 0 59804  23760.00000  0     987919.460   -4301580.783    5497663.061
10 0 59804  23940.00000  0     397833.224   -3299622.701    6214575.055
10 0 59804  24120.00000  0    -178675.180   -2162002.529    6703171.213
10 0 59804  24300.00000  0    -717570.967    -930882.360    6945496.578
10 0 59804  24480.00000  0   -1197348.061     347565.737    6932623.927
10 0 59804  24660.00000  0   -1599891.332    1624913.041    6664976.683
10 0 59804  24840.00000  0   -1911169.031    2852326.268    6152319.978
10 0 59804  25020.00000  0   -2121732.113    3982455.749    5413422.407
10 0 59804  25200.00000  0   -2227003.283    4971295.723    4475394.682
10 0 59804  25380.00000  0   -2227346.356    5779949.359    3372715.329
10 0 59804  25560.00000  0   -2127910.605    6376218.886    2145962.531
10 0 59804  25740.00000  0   -1938256.219    6735941.960     840295.867
10 0 59804  25920.00000  0   -1671776.181    6844008.160    -496252.269
10 0 59804  26100.00000  0   -1344946.273    6695001.613   -1814604.153
10 0 59804  26280.00000  0    -976441.378    6293426.964   -3066506.005
10 0 59804  26460.00000  0    -586170.812    5653504.664   -4206330.560
10 0 59804  26640.00000  0    -194289.553    4798580.358   -5192736.775
10 0 59804  26820.00000  0     179767.245    3760185.937   -5990133.223
10 0 59804  27000.00000  0     518182.748    2576804.271   -6569897.891
10 0 59804  27180.00000  0     805548.698    1292399.285   -6911321.509
10 0 59804  27360.00000  0    1029519.241     -45218.876   -7002266.078
10 0 59804  27540.00000  0    1181308.980   -1386142.472   -6839539.668
10 0 59804  27720.00000  0    1256021.050   -2680175.384   -6428984.221
10 0 59804  27900.00000  0    1252800.501   -3878652.955   -5785288.770
10 0 59804  28080.00000  0    1174807.465   -4936239.389   -4931525.543
10 0 59804  28260.00000  0    1029010.222   -5812640.031   -3898399.164
10 0 59804  28440.00000  0     825802.631   -6474170.603   -2723222.805
10 0 59804  28620.00000  0     578457.390   -6895117.210   -1448632.171
10 0 59804  28800.00000  0     302437.040   -7058818.349    -121068.689
10 0 59804  28980.00000  0      14590.559   -6958401.080    1210918.571
10 0 59804  29160.00000  0    -267724.167   -6597125.835    2498481.216
10 0 59804  29340.00000  0    -527546.877   -5988311.169    3694316.992
10 0 59804  29520.00000  0    -749201.372   -5154827.610    4754460.666
10 0 59804  29700.00000  0    -919115.385   -4128198.440    5639933.082
10 0 59804  29880.00000  0   -1026530.748   -2947355.993    6318190.915
10 0 59804  30060.00000  0   -1064069.591   -1657107.674    6764318.221
10 0 59804  30240.00000  0   -1028130.690    -306394.607    6961920.258
10 0 59804  30420.00000  0    -919104.636    1053591.606    6903711.844
10 0 59804  30600.00000  0    -741394.778    2371369.981    6591781.123
10 0 59804  30780.00000  0    -503239.798    3597139.406    6037522.795
10 0 59804  30960.00000  0    -216347.872    4684688.847    5261241.413
10 0 59804  31140.00000  0     104644.751    5593182.316    4291431.649
10 0 59804  31320.00000  0     442871.096    6288749.691    3163747.242
10 0 59804  31500.00000  0     780055.126    6745814.258    1919693.373
10 0 59804  31680.00000  0    1097424.764    6948098.633     605065.276
10 0 59804  31860.00000  0    1376664.805    6889228.982    -731793.870
10 0 59804  32040.00000  0    1600858.590    6572920.443   -2041831.095
10 0 59804  32220.00000  0    1755366.093    6012739.276   -3277134.799
10 0 59804  32400.00000  0    1828595.894    5231461.386   -4392718.317
10 0 59804  32580.00000  0    1812633.540    4260064.045   -5348157.289
10 0 59804  32760.00000  0    1703697.097    3136416.709   -6109012.349
10 0 59804  32940.00000  0    1502404.008    1903748.104   -6647999.165
10 0 59804  33120.00000  0    1213842.731     608960.871   -6945880.545
10 0 59804  33300.00000  0     847453.092    -699136.693   -6992075.749
10 0 59804  33480.00000  0     416717.667   -1971628.670   -6784983.671
10 0 59804  33660.00000  0     -61322.565   -3161262.298   -6332022.817
10 0 59804  33840.00000  0    -566716.837   -4224154.399   -5649398.658
10 0 59804  34020.00000  0   -1077400.808   -5121389.543   -4761586.196
10 0 59804  34200.00000  0   -1570116.858   -5820458.973   -3700534.031
10 0 59804  34380.00000  0   -2021430.125   -6296487.826   -2504592.156
10 0 59804  34560.00000  0   -2408797.890   -6533192.777   -1217183.704
10 0 59804  34740.00000  0   -2711644.135   -6523520.327     114747.123
10 0 59804  34920.00000  0   -2912384.589   -6269917.346    1442460.290
10 0 59804  35100.00000  0   -2997345.481   -5784206.775    2717243.920
10 0 59804  35280.00000  0   -2957523.757   -5087068.399    3892254.394
10 0 59804  35460.00000  0   -2789145.548   -4207150.321    4924285.783
10 0 59804  35640.00000  0   -2493996.211   -3179859.066    5775391.247
10 0 59804  35820.00000  0   -2079503.976   -2045889.056    6414290.278
10 0 59804  36000.00000  0   -1558572.105    -849569.653    6817511.343
10 0 59804  36180.00000  0    -949170.399     362902.196    6970238.183
10 0 59804  36360.00000  0    -273706.660    1545267.855    6866834.105
10 0 59804  36540.00000  0     441804.651    2652987.795    6511048.022
10 0 59804  36720.00000  0    1168752.336    3644939.413    5915888.156
10 0 59804  36900.00000  0    1877077.875    4484971.232    5103167.897
10 0 59804  37080.00000  0    2536525.251    5143262.478    4102730.351
10 0 59804  37260.00000  0    3117942.990    5597429.203    2951365.744
10 0 59804  37440.00000  0    3594581.352    5833333.990    1691454.841
10 0 59804  37620.00000  0    3943320.304    5845552.178     369370.071
10 0 59804  37800.00000  0    4145757.313    5637461.047    -966287.211
10 0 59804  37980.00000  0    4189103.726    5220951.973   -2266533.828
10 0 59804  38160.00000  0    4066841.915    4615786.819   -3483850.763
10 0 59804  38340.00000  0    3779109.373    3848637.049   -4573946.273
10 0 59804  38520.00000  0    3332798.841    2951865.541   -5497355.993
10 0 59804  38700.00000  0    2741380.350    1962122.052   -6220825.446
10 0 59804  38880.00000  0    2024459.906     918822.645   -6718432.937
10 0 59804  39060.00000  0    1207104.044    -137415.677   -6972430.190
10 0 59804  39240.00000  0     318961.182   -1166325.676   -6973802.149
10 0 59804  39420.00000  0    -606796.954   -2129481.779   -6722540.618
10 0 59804  39600.00000  0   -1534677.543   -2991687.986   -6227637.824
10 0 59804  39780.00000  0   -2428185.857   -3722234.266   -5506801.205
10 0 59804  39960.00000  0   -3251223.909   -4295984.287   -4585888.989
10 0 59804  40140.00000  0   -3969532.751   -4694264.038   -3498066.034
10 0 59804  40320.00000  0   -4552120.786   -4905509.844   -2282683.465
10 0 59804  40500.00000  0   -4972617.640   -4925643.630    -983906.862
10 0 59804  40680.00000  0   -5210486.311   -4758149.073     350870.603
10 0 59804  40860.00000  0   -5252026.617   -4413836.186    1672774.598
10 0 59804  41040.00000  0   -5091108.188   -3910293.842    2933285.150
10 0 59804  41220.00000  0   -4729586.736   -3271052.694    4086071.576
10 0 59804  41400.00000  0   -4177381.460   -2524504.552    5088742.985
10 0 59804  41580.00000  0   -3452207.438   -1702634.031    5904434.913
10 0 59804  41760.00000  0   -2578985.507    -839634.103    6503170.395
10 0 59804  41940.00000  0   -1588952.714      29535.457    6862956.850
10 0 59804  42120.00000  0    -518510.047     870580.479    6970572.710
10 0 59804  42300.00000  0     592135.866    1651232.934    6822036.517
10 0 59804  42480.00000  0    1700496.418    2342501.241    6422753.291
10 0 59804  42660.00000  0    2763440.354    2919761.985    5787328.844
10 0 59804  42840.00000  0    3738892.439    3363656.973    4939060.570
10 0 59804  43020.00000  0    4587531.721    3660765.939    3909105.448
10 0 59804  43200.00000  0    5274417.932    3804025.705    2735349.152
10 0 59804  43380.00000  0    5770479.716    3792876.265    1460998.547
10 0 59804  43560.00000  0    6053776.792    3633119.414     132951.950
10 0 59804  43740.00000  0    6110474.319    3336499.280   -1199985.394
10 0 59804  43920.00000  0    5935474.082    2920024.470   -2488956.161
10 0 59804  44100.00000  0    5532673.868    2405075.227   -3686887.290
10 0 59804  44280.00000  0    4914852.658    1816346.732   -4750228.515
10 0 59804  44460.00000  0    4103192.919    1180683.794   -5640520.991
10 0 59804  44640.00000  0    3126477.304     525873.399   -6325732.258
10 0 59804  44820.00000  0    2020011.418    -120545.684   -6781330.140
99
